#aV2009 12  6  0  0   .00000000      96 DD+AD WGS84 FIT  NGA
## 1561       .00000000   900.00000000 55171  .0000000000000
+   32     1  2  3  4  5  6  7  8  9 10 11 12 13 14 15 16 17
+         18 19 20 21 22 23 24 25 26 27 28 29 30 31 32  0  0
+          0  0  0  0  0  0  0  0  0  0  0  0  0  0  0  0  0
+          0  0  0  0  0  0  0  0  0  0  0  0  0  0  0  0  0
+          0  0  0  0  0  0  0  0  0  0  0  0  0  0  0  0  0
++         0  0  0  0  0  0  0  0  0  0  0  0  0  0  0  0  0
++         0  0  0  0  0  0  0  0  0  0  0  0  0  0  0  0  0
++         0  0  0  0  0  0  0  0  0  0  0  0  0  0  0  0  0
++         0  0  0  0  0  0  0  0  0  0  0  0  0  0  0  0  0
++         0  0  0  0  0  0  0  0  0  0  0  0  0  0  0  0  0
%c cc cc ccc ccc cccc cccc cccc cccc ccccc ccccc ccccc ccccc
%c cc cc ccc ccc cccc cccc cccc cccc ccccc ccccc ccccc ccccc
%f  0.0000000  0.000000000  0.00000000000  0.000000000000000
%f  0.0000000  0.000000000  0.00000000000  0.000000000000000
%i    0    0    0    0      0      0      0      0         0
%i    0    0    0    0      0      0      0      0         0
/*      NGA, ST. LOUIS,MO.                                  
/*   EPHEMERIS COMPUTED FROM  3 DAYS OF DATA                
/* CCCCCCCCCCCCCCCCCCCCCCCCCCCCCCCCCCCCCCCCCCCCCCCCCCCCCCCCC
/* CCCCCCCCCCCCCCCCCCCCCCCCCCCCCCCCCCCCCCCCCCCCCCCCCCCCCCCCC
*  2009 12  6 13 15   .00000000                                                 
P  1  -4760.433508  15161.754614 -21367.231578    -69.498994                    
V  1 -26895.449820    943.506448   6796.283243      -.025782                    
P  2 -17310.275314   2164.744780 -19976.880798    200.265877                    
V  2   9898.568765 -23455.109337 -11585.701598       .046534                    
P  3  19581.092342   2982.886324  17503.179303    484.176904                    
V  3  13048.466827  18939.978289 -17132.094639       .051701                    
P  4 -12298.046615 -10198.841673 -21342.080939   -393.646754                    
V  4  12831.400860 -23594.133683   4279.035607      -.185175                    
P  5 -26445.482004   2496.758882   1461.269393    -32.851918                    
V  5  -2018.771810  -2636.466666 -31633.763414       .057179                    
P  6  19900.041472   6772.297026  16472.656731    263.441325                    
V  6  10241.583674  18046.268183 -19904.766719       .004891                    
P  7   5649.326375 -24313.786301   8833.437530      6.458020                    
V  7   7311.971824  -8911.697092 -29325.817956      -.006591                    
P  8  -3377.527033 -18276.969798  18728.700108       .551529                    
V  8  13369.004178 -19921.262156 -17513.073388       .004352                    
P  9 -15163.928085  20138.814597   7616.109584     92.506039                    
V  9   2434.951095 -10536.453270  30167.765632       .021589                    
P 10 -26573.854753  -1289.772653  -2915.945414    -29.809254                    
V 10   3386.872035  -2742.585777 -31140.723885      -.007828                    
P 11  11348.292473 -22777.673164   6685.431179    -32.846543                    
V 11   2774.217021   9982.587172  28637.829005      -.019774                    
P 12 -18676.584229  11189.943367 -15068.496558   -180.259516                    
V 12 -19331.649659  -1087.954465  23195.795493       .051732                    
P 13  -3568.177757 -23141.881702 -12645.859501    306.495773                    
V 13   8993.080726  13082.624036 -26755.920185       .000957                    
P 14  14875.218154  21924.096911  -2536.000590    -15.541277                    
V 14    102.830884   3854.707811  32034.053139       .046994                    
P 15 -15001.500992   4842.635758  21416.509776   -318.737464                    
V 15 -14760.087311 -22770.815937  -5106.752846       .010164                    
P 16  25911.210753   3102.677753  -5572.210067    -16.397492                    
V 16  -7014.494372   2423.669253 -30762.173360      -.042224                    
P 17 -15831.919705 -21210.749907  -3228.830409    109.200563                    
V 17     63.294658  -4945.001682  31242.681967       .036764                    
P 18   2442.341052  15688.730290  21562.562063     32.749094                    
V 18 -26837.031370    784.569243   2125.985526       .027093                    
P 19  14308.017464  -5678.056574  21693.551419     -2.468897                    
V 19  13099.986004  24130.906832  -2051.159043      -.020439                    
P 20  14090.724406 -14085.156731 -17667.445196     66.048247                    
V 20  22355.440450    190.595276  17861.367911      -.008296                    
P 21  -1083.565828  22891.928852  13166.420259    -25.829386                    
V 21 -10645.049467  13106.457321 -24829.073039      -.023923                    
P 22  15469.341921  12658.479239  17690.337943    184.605344                    
V 22 -22141.569175   2400.013519  17733.290086      -.010971                    
P 23   6096.398546 -16135.115584 -20138.581627    384.884195                    
V 23  14739.675413  20931.408255 -12618.983956      -.006485                    
P 24 -13188.715636  23212.559377    213.690315    242.632412                    
V 24  -2631.870829  -1352.488386 -31343.496637       .032340                    
P 25   8172.994121 -25281.041043   2589.278907     44.742123                    
V 25   3166.328024  -1799.835585 -31650.219824       .124425                    
P 26   9806.769560  23801.837616   4873.739020      -.544243                    
V 26  -5385.604558  -4933.723403  31936.036475      -.023805                    
P 27 -16692.469326  16927.241441  12466.398016    106.005934                    
V 27   4330.744283 -14199.900682  26634.668812       .033770                    
P 28 -12966.516804 -13221.039719  19606.375445    -24.929371                    
V 28  23785.744845  -1394.449583  14836.423343       .002881                    
P 29   1062.509350  21876.872820 -14962.085039     79.933473                    
V 29 -11730.322971 -15269.885723 -22982.104434       .030994                    
P 30  -6823.911838  15487.914007 -20842.703470    199.227205                    
V 30 -25599.286210   1555.083803   9776.071038       .032645                    
P 31  12725.488141   7598.941719 -21818.866209    -59.371890                    
V 31 -12964.059312  25032.703926   1290.637781       .010083                    
P 32  21835.597542  -7839.068734 -12272.945150    143.601696                    
V 32  16194.442007   3165.722023  26309.960931      -.077042                    
EOF
